[{"OBJECT_NAME":"S-NET A","OBJECT_ID":"2018-014J","EPOCH":"2026-03-09T17:45:22.875840","MEAN_MOTION":15.15637105,"ECCENTRICITY":0.00092363,"INCLINATION":97.5446,"RA_OF_ASC_NODE":334.3608,"ARG_OF_PERICENTER":10.8145,"MEAN_ANOMALY":349.3285,"EPHEMERIS_TYPE":0,"CLASSIFICATION_TYPE":"U","NORAD_CAT_ID":43188,"ELEMENT_SET_NO":999,"REV_AT_EPOCH":44369,"BSTAR":0.00039378194,"MEAN_MOTION_DOT":7.428e-5,"MEAN_MOTION_DDOT":0},{"OBJECT_NAME":"STARLINK-5703","OBJECT_ID":"2023-020AA","EPOCH":"2026-03-09T22:00:01.999584","MEAN_MOTION":15.13369533,"ECCENTRICITY":8.937e-5,"INCLINATION":43.0001,"RA_OF_ASC_NODE":2.8646,"ARG_OF_PERICENTER":241.2923,"MEAN_ANOMALY":341.0522,"EPHEMERIS_TYPE":0,"CLASSIFICATION_TYPE":"U","NORAD_CAT_ID":55593,"ELEMENT_SET_NO":999,"REV_AT_EPOCH":567,"BSTAR":0.067030028,"MEAN_MOTION_DOT":0.01321508,"MEAN_MOTION_DDOT":0}]
